{
    "links": {
        "self": "http://www.neowsapp.com/rest/v1/neo/3892310?api_key=iIulBulltgU6a56xZRHN4H3l9WmuAYTsLGpBGhQ2"
    },
    "id": "3892310",
    "neo_reference_id": "3892310",
    "name": "(2019 UR14)",
    "designation": "2019 UR14",
    "nasa_jpl_url": "http://ssd.jpl.nasa.gov/sbdb.cgi?sstr=3892310",
    "absolute_magnitude_h": 22.7,
    "estimated_diameter": {
        "kilometers": {
            "estimated_diameter_min": 0.0766575574,
            "estimated_diameter_max": 0.1714115092
        },
        "meters": {
            "estimated_diameter_min": 76.6575573531,
            "estimated_diameter_max": 171.4115092306
        },
        "miles": {
            "estimated_diameter_min": 0.0476327831,
            "estimated_diameter_max": 0.1065101409
        },
        "feet": {
            "estimated_diameter_min": 251.5011804664,
            "estimated_diameter_max": 562.3737359442
        }
    },
    "is_potentially_hazardous_asteroid": false,
    "close_approach_data": [
        {
            "close_approach_date": "2002-12-03",
            "close_approach_date_full": "2002-Dec-03 02:22",
            "epoch_date_close_approach": 1038882120000,
            "relative_velocity": {
                "kilometers_per_second": "7.274433128",
                "kilometers_per_hour": "26187.9592608742",
                "miles_per_hour": "16272.1794640693"
            },
            "miss_distance": {
                "astronomical": "0.3343509986",
                "lunar": "130.0625384554",
                "kilometers": "50018197.222932982",
                "miles": "31079866.5617678716"
            },
            "orbiting_body": "Earth"
        },
        {
            "close_approach_date": "2019-11-20",
            "close_approach_date_full": "2019-Nov-20 13:59",
            "epoch_date_close_approach": 1574258340000,
            "relative_velocity": {
                "kilometers_per_second": "7.2962857972",
                "kilometers_per_hour": "26266.6288697959",
                "miles_per_hour": "16321.0616996796"
            },
            "miss_distance": {
                "astronomical": "0.3035731841",
                "lunar": "118.0899686149",
                "kilometers": "45413901.730477867",
                "miles": "28218890.0080018846"
            },
            "orbiting_body": "Earth"
        },
        {
            "close_approach_date": "2036-11-06",
            "close_approach_date_full": "2036-Nov-06 22:58",
            "epoch_date_close_approach": 2109625080000,
            "relative_velocity": {
                "kilometers_per_second": "7.4377882501",
                "kilometers_per_hour": "26776.0377003629",
                "miles_per_hour": "16637.5885366505"
            },
            "miss_distance": {
                "astronomical": "0.3855071055",
                "lunar": "149.9622640395",
                "kilometers": "57671041.852665285",
                "miles": "35835123.710479533"
            },
            "orbiting_body": "Earth"
        }
    ],
    "orbital_data": {
        "orbit_id": "4",
        "orbit_determination_date": "2019-12-30 05:12:03",
        "first_observation_date": "2019-10-31",
        "last_observation_date": "2019-12-21",
        "data_arc_in_days": 51,
        "observations_used": 26,
        "orbit_uncertainty": "6",
        "minimum_orbit_intersection": ".299572",
        "jupiter_tisserand_invariant": "3.961",
        "epoch_osculation": "2459000.5",
        "eccentricity": ".3130763719020221",
        "semi_major_axis": "1.809201087937745",
        "inclination": "14.37836278335918",
        "ascending_node_longitude": "217.400161462923",
        "orbital_period": "888.850430744396",
        "perihelion_distance": "1.242782975285004",
        "perihelion_argument": "225.8893610767662",
        "aphelion_distance": "2.375619200590485",
        "perihelion_time": "2458841.602327994234",
        "mean_anomaly": "64.35634156600341",
        "mean_motion": ".4050175232502352",
        "equinox": "J2000",
        "orbit_class": {
            "orbit_class_type": "AMO",
            "orbit_class_description": "Near-Earth asteroid orbits similar to that of 1221 Amor",
            "orbit_class_range": "1.017 AU < q (perihelion) < 1.3 AU"
        }
    },
    "is_sentry_object": false
}